COSMOS 2361 [-]         
1 25590U 98076A   23014.18217730  .00000075  00000+0  65147-4 0  9998
2 25590  82.9328  50.3920 0031079 345.2753  78.2433 13.73040313205451
COSMOS 2378 [-]         
1 26818U 01023A   23014.15831132  .00000082  00000+0  71270-4 0  9995
2 26818  82.9265  68.0689 0031615 289.0066 124.6153 13.73984314 83245
COSMOS 2389 [-]         
1 27436U 02026A   23013.75887094  .00000069  00000+0  55167-4 0  9991
2 27436  82.9506  14.3756 0047143 147.4837  25.8411 13.74992516 35267
COSMOS 2398 [-]         
1 27818U 03023A   23014.14341391  .00000086  00000+0  77056-4 0  9992
2 27818  82.9500 336.3699 0031128 184.2986 186.5098 13.72227427982276
COSMOS 2407 [+]         
1 28380U 04028A   23014.24118484  .00000078  00000+0  63717-4 0  9999
2 28380  82.9609 280.3628 0039869 146.3413 327.9672 13.76132597928147
COSMOS 2414 [+]         
1 28521U 05002A   23014.15525408  .00000094  00000+0  65803-4 0  9993
2 28521  82.9493 268.9242 0039095 294.4108  65.2978 13.87679509910767
COSMOS 2429 [-]         
1 32052U 07038A   23013.82391289  .00000057  00000+0  43157-4 0  9996
2 32052  82.9792  47.3133 0039646 125.7715 234.7138 13.74980224769817
COSMOS 2454 [-]         
1 35635U 09039A   23014.43471160  .00000078  00000+0  50449-4 0  9999
2 35635  82.9550 254.6662 0018119 232.8442 301.3314 13.89708312683991
COSMOS 2463 [+]         
1 36519U 10017A   23014.27337028  .00000066  00000+0  56604-4 0  9991
2 36519  82.9601  87.9728 0036035   0.3835  59.0189 13.71490185636689
